{"type":"FeatureCollection","features":[{"type":"Feature","properties":{"ADM1_EN":"Chittagong"},"geometry":{"type":"MultiPolygon","coordinates":[[[[92.31408,20.66637],[92.30003,20.67525],[92.28994,20.66835],[92.28644,20.65599],[92.29576,20.64182],[92.30197,20.63528],[92.30236,20.6262],[92.30508,20.62147],[92.31013,20.6222],[92.31129,20.63201],[92.31013,20.65563],[92.31129,20.66181],[92.31408,20.66637]]],[[[91.89033,21.79069],[91.90125,21.82054],[91.90064,21.87911],[91.89215,21.89881],[91.89033,21.92076],[91.87395,21.93033],[91.83087,21.9157],[91.83694,21.89206],[91.85271,21.87348],[91.84968,21.85377],[91.84846,21.82561],[91.83876,21.77829],[91.84604,21.75857],[91.85696,21.75406],[91.89033,21.79069]]],[[[91.23627,22.65043],[91.2333,22.62308],[91.24515,22.58069],[91.31181,22.5465],[91.31625,22.59437],[91.30885,22.62035],[91.25256,22.64906],[91.23627,22.64906],[91.23627,22.65043]]],[[[91.46734,22.60121],[91.42883,22.64633],[91.33551,22.67093],[91.39624,22.59847],[91.40217,22.53145],[91.38735,22.46028],[91.47771,22.40415],[91.50289,22.36443],[91.51326,22.34525],[91.56955,22.39045],[91.54289,22.50682],[91.49697,22.55334],[91.48216,22.58343],[91.46438,22.5971],[91.4629,22.59574],[91.46734,22.60121]]],[[[91.05366,22.72335],[91.04513,22.69362],[91.07451,22.64901],[91.07262,22.59563],[91.10011,22.57024],[91.15509,22.56849],[91.18922,22.61138],[91.16552,22.663],[91.11433,22.69887],[91.10675,22.71111],[91.10295,22.71023],[91.05366,22.72335]]],[[[91.31057,22.69099],[91.30488,22.71198],[91.2461,22.74171],[91.25084,22.75133],[91.24989,22.7522],[91.19681,22.76532],[91.19112,22.74346],[91.24326,22.70761],[91.28592,22.68575],[91.31057,22.69099]]],[[[91.31815,22.76619],[91.34564,22.73297],[91.37503,22.71898],[91.38072,22.73472],[91.35038,22.76532],[91.35038,22.76357],[91.31815,22.76619]]],[[[91.30737,24.20657],[91.31033,24.23088],[91.28959,24.23764],[91.25849,24.24439],[91.21485,24.24363],[91.18146,24.24304],[91.13554,24.23359],[91.11629,24.21332],[91.09407,24.20116],[91.06,24.20657],[91.03926,24.18495],[91.04222,24.16063],[91.05555,24.1417],[91.06592,24.11332],[91.06148,24.07951],[91.0363,24.05922],[91.00075,24.03352],[90.99334,24.00105],[90.99186,23.96451],[90.96816,23.95097],[90.94002,23.91577],[90.92965,23.8941],[90.9178,23.87379],[90.86299,23.85889],[90.80078,23.8616],[90.77115,23.85076],[90.7593,23.79114],[90.73709,23.76809],[90.7356,23.72742],[90.73412,23.70843],[90.71042,23.68944],[90.68672,23.67859],[90.67635,23.67045],[90.66598,23.64603],[90.66598,23.62568],[90.70005,23.57002],[90.70894,23.52521],[90.68672,23.50348],[90.62599,23.49397],[90.61118,23.46136],[90.59488,23.41652],[90.60081,23.37981],[90.63636,23.34718],[90.6536,23.30969],[90.66024,23.2557],[90.64317,23.22086],[90.62327,23.19907],[90.57711,23.13894],[90.586,23.06128],[90.58979,23.05695],[90.64821,22.99039],[90.67635,22.96311],[90.71339,22.94538],[90.78597,22.86897],[90.82004,22.75428],[90.93854,22.56565],[90.96668,22.53965],[91.01408,22.50408],[91.04074,22.44933],[91.05852,22.37401],[91.06,22.32881],[91.04222,22.23286],[91.03037,22.20132],[91.02065,22.12004],[91.03685,22.09431],[91.12249,22.11146],[91.15026,22.17578],[91.141,22.24006],[91.13869,22.31716],[91.141,22.38566],[91.13406,22.42845],[91.1086,22.47337],[91.0762,22.50972],[91.02,22.54786],[91.03926,22.59437],[91.04667,22.63265],[91.02741,22.69826],[90.98297,22.82802],[90.98594,22.85396],[91.0674,22.79662],[91.13702,22.80481],[91.17257,22.83758],[91.32366,22.77887],[91.35329,22.8171],[91.37699,22.82529],[91.41402,22.7734],[91.48067,22.77067],[91.52659,22.6969],[91.56511,22.66],[91.59769,22.63129],[91.61547,22.61078],[91.64213,22.57249],[91.66731,22.5465],[91.70286,22.49176],[91.72656,22.43975],[91.75174,22.37675],[91.75915,22.30551],[91.85691,22.15194],[91.91468,22.05038],[91.93542,21.91577],[91.92505,21.79204],[91.89691,21.70812],[91.90709,21.63895],[91.90246,21.59161],[91.9094,21.50335],[91.9881,21.50335],[92.00893,21.49904],[91.99967,21.41934],[92.00198,21.38055],[92.02513,21.33744],[92.05059,21.26197],[92.05753,21.20372],[92.0691,21.16056],[92.16399,21.03748],[92.20334,20.97266],[92.23574,20.87971],[92.28666,20.80616],[92.35841,20.72826],[92.35147,20.78198],[92.32872,20.83072],[92.31166,20.88476],[92.30502,20.90867],[92.30502,20.92992],[92.29933,20.95471],[92.27246,21.0044],[92.27285,21.02252],[92.28644,21.03774],[92.28605,21.05731],[92.27984,21.07652],[92.24684,21.11093],[92.20839,21.16273],[92.20878,21.17576],[92.21267,21.1888],[92.23208,21.20617],[92.23014,21.25829],[92.22349,21.32784],[92.24056,21.34374],[92.25383,21.34992],[92.26615,21.36669],[92.26994,21.39141],[92.28606,21.41789],[92.31545,21.41259],[92.33062,21.41612],[92.3382,21.43377],[92.3401,21.45142],[92.35147,21.4673],[92.3619,21.47259],[92.37517,21.47259],[92.38939,21.46289],[92.39887,21.44966],[92.42636,21.39582],[92.44912,21.36228],[92.45765,21.35433],[92.47471,21.35257],[92.50126,21.35257],[92.51453,21.35521],[92.53728,21.36404],[92.54771,21.37111],[92.56667,21.36228],[92.57046,21.3402],[92.56951,21.32431],[92.5733,21.30223],[92.58847,21.26248],[92.59606,21.25099],[92.60554,21.24569],[92.63019,21.24304],[92.64061,21.24834],[92.65389,21.2616],[92.68327,21.28368],[92.69086,21.30311],[92.68043,21.32078],[92.67379,21.34727],[92.66811,21.36228],[92.66621,21.38082],[92.66147,21.39582],[92.6482,21.46377],[92.64156,21.48406],[92.6245,21.5167],[92.62355,21.5555],[92.60868,21.76759],[92.61475,21.80759],[92.62871,21.85039],[92.64751,21.89431],[92.64145,21.93821],[92.61354,22.02654],[92.60504,22.05916],[92.5741,22.14348],[92.60626,22.1255],[92.60504,22.17888],[92.61232,22.2182],[92.60322,22.25639],[92.58381,22.31141],[92.57289,22.38155],[92.54866,22.51333],[92.53823,22.55624],[92.53444,22.59475],[92.54202,22.62538],[92.53064,22.73209],[92.49557,22.76619],[92.46713,22.78367],[92.46975,22.86039],[92.45761,22.89617],[92.41332,22.92355],[92.39087,22.95261],[92.38602,22.97663],[92.38939,23.02295],[92.40077,23.04737],[92.39792,23.07703],[92.36664,23.14504],[92.3619,23.22173],[92.3619,23.24873],[92.36854,23.26702],[92.38181,23.28705],[92.40077,23.31056],[92.37328,23.33842],[92.3874,23.38213],[92.35517,23.43344],[92.32799,23.47049],[92.32411,23.48117],[92.32178,23.5264],[92.3126,23.57854],[92.28894,23.63525],[92.28409,23.6547],[92.2847,23.67804],[92.28955,23.69416],[92.29198,23.71249],[92.28288,23.73137],[92.26589,23.74526],[92.24769,23.72971],[92.23919,23.71304],[92.23858,23.69527],[92.22888,23.65971],[92.22281,23.65859],[92.21432,23.68415],[92.21917,23.70193],[92.21917,23.7236],[92.20825,23.74082],[92.19126,23.75192],[92.17245,23.7547],[92.15,23.74748],[92.12755,23.73637],[92.10571,23.71915],[92.09297,23.70193],[92.08872,23.69027],[92.07598,23.67415],[92.07371,23.66009],[92.04242,23.66182],[92.01872,23.67745],[91.99597,23.72953],[91.98554,23.74342],[91.9571,23.74515],[91.92582,23.71999],[91.93151,23.68613],[91.94383,23.64532],[91.95047,23.59495],[91.96753,23.54368],[91.9571,23.4837],[91.95426,23.44457],[91.92108,23.4524],[91.88411,23.44979],[91.87368,23.42891],[91.83671,23.38454],[91.80542,23.33319],[91.79594,23.31056],[91.78362,23.29228],[91.77793,23.27312],[91.78457,23.23567],[91.79689,23.20692],[91.81543,23.18953],[91.82165,23.16561],[91.82398,23.14633],[91.82242,23.12955],[91.8131,23.10669],[91.79912,23.08848],[91.78359,23.07526],[91.75602,23.0431],[91.74787,23.02738],[91.73622,23.0138],[91.72289,23.00178],[91.70177,22.98988],[91.66574,22.98737],[91.65207,22.97959],[91.63865,22.97455],[91.62647,22.9805],[91.61777,22.98691],[91.5964,22.97547],[91.58596,22.97227],[91.56498,22.98127],[91.54129,23.01201],[91.53469,23.06025],[91.53042,23.0774],[91.52576,23.12241],[91.51598,23.16195],[91.52205,23.18928],[91.48443,23.23277],[91.44439,23.26678],[91.42558,23.27347],[91.4092,23.27012],[91.40131,23.25117],[91.4001,23.22831],[91.39282,23.20266],[91.3916,23.16139],[91.39464,23.14019],[91.41102,23.095],[91.40859,23.0816],[91.39949,23.08216],[91.3825,23.08774],[91.37037,23.09555],[91.35459,23.11509],[91.33396,23.16028],[91.32911,23.18482],[91.3279,23.25117],[91.31576,23.30133],[91.30423,23.32306],[91.3012,23.34312],[91.29331,23.3654],[91.23923,23.4899],[91.19035,23.5483],[91.16369,23.60939],[91.15776,23.64196],[91.19479,23.67045],[91.19183,23.71386],[91.17257,23.7464],[91.17702,23.77487],[91.21405,23.77487],[91.23182,23.783],[91.23034,23.81011],[91.24136,23.89519],[91.23567,23.94892],[91.2698,23.9775],[91.2954,24.00349],[91.31033,24.04299],[91.30737,24.06328],[91.29107,24.08492],[91.28515,24.11737],[91.28515,24.15252],[91.29107,24.17955],[91.30737,24.20657]]]]}},{"type":"Feature","properties":{"ADM1_EN":"Dhaka"},"geometry":{"type":"Polygon","coordinates":[[[91.21485,24.24363],[91.20059,24.2823],[91.17509,24.30555],[91.19883,24.32638],[91.22961,24.33359],[91.24104,24.34321],[91.22961,24.36644],[91.22785,24.38166],[91.25071,24.39207],[91.25687,24.40008],[91.2384,24.4153],[91.22345,24.43211],[91.2428,24.46413],[91.2217,24.48574],[91.19971,24.46973],[91.1619,24.48254],[91.17773,24.50495],[91.23626,24.5331],[91.23901,24.56434],[91.21153,24.59433],[91.20328,24.62931],[91.1939,24.63997],[91.19229,24.6418],[91.15382,24.62306],[91.09199,24.61557],[91.07,24.61682],[91.02466,24.60058],[91.00405,24.60058],[90.97107,24.59808],[90.89963,24.59058],[90.87764,24.58059],[90.83367,24.5356],[90.79795,24.5256],[90.77047,24.5231],[90.7526,24.51185],[90.70726,24.49934],[90.67566,24.49559],[90.62757,24.5081],[90.6152,24.5081],[90.60696,24.47684],[90.63856,24.45432],[90.67016,24.44307],[90.67291,24.42931],[90.66467,24.39928],[90.6523,24.38176],[90.65093,24.36299],[90.66467,24.34421],[90.66879,24.32543],[90.66467,24.31041],[90.64543,24.28912],[90.61795,24.2816],[90.58635,24.2816],[90.57123,24.29914],[90.54925,24.31917],[90.5094,24.33294],[90.48055,24.34546],[90.41734,24.31541],[90.36513,24.29914],[90.31429,24.28411],[90.2717,24.30915],[90.25933,24.33795],[90.25796,24.38551],[90.25933,24.41304],[90.23597,24.44432],[90.23323,24.46558],[90.24834,24.47684],[90.24834,24.50059],[90.20575,24.52435],[90.17414,24.56434],[90.14391,24.59433],[90.13979,24.61307],[90.15353,24.6368],[90.15216,24.65179],[90.13704,24.70548],[90.1343,24.73543],[90.11369,24.76787],[90.08758,24.79158],[90.04773,24.79033],[90.02025,24.7529],[89.99002,24.72669],[89.96529,24.73793],[89.93506,24.76538],[89.89522,24.7504],[89.88285,24.72545],[89.88285,24.68925],[89.87461,24.64929],[89.843,24.62431],[89.83201,24.59808],[89.79949,24.57915],[89.79766,24.57809],[89.77293,24.56184],[89.7482,24.54435],[89.73995,24.5256],[89.7482,24.50184],[89.75369,24.49184],[89.75094,24.46058],[89.7372,24.43556],[89.76056,24.40804],[89.76469,24.39302],[89.76056,24.35923],[89.78255,24.32167],[89.79766,24.28035],[89.79766,24.25029],[89.79354,24.21019],[89.79491,24.18889],[89.79904,24.14501],[89.80865,24.07352],[89.80178,24.06223],[89.79975,24.03036],[89.77601,24.00867],[89.73995,23.99662],[89.71797,23.97413],[89.7593,23.92671],[89.77073,23.89054],[89.78656,23.85998],[89.79447,23.79563],[89.79359,23.76505],[89.73204,23.76022],[89.68279,23.76987],[89.64058,23.77148],[89.61156,23.79321],[89.57639,23.82137],[89.54737,23.79563],[89.50516,23.78999],[89.46383,23.80608],[89.45679,23.83102],[89.43745,23.85917],[89.40755,23.87928],[89.3372,23.89456],[89.33748,23.90395],[89.30822,23.90755],[89.25527,23.91234],[89.25538,23.91165],[89.25894,23.89054],[89.31346,23.864],[89.32665,23.82941],[89.32489,23.78677],[89.30642,23.75297],[89.30554,23.7256],[89.33017,23.68937],[89.38117,23.6628],[89.42426,23.67568],[89.50781,23.54415],[89.50817,23.53094],[89.49952,23.52532],[89.49736,23.51607],[89.50276,23.49989],[89.52293,23.49328],[89.53986,23.49328],[89.55895,23.488],[89.57228,23.48205],[89.58694,23.47015],[89.59222,23.44595],[89.59398,23.42013],[89.5887,23.404],[89.58167,23.39189],[89.58793,23.3791],[89.5823,23.36051],[89.59693,23.34397],[89.60369,23.32588],[89.6065,23.31348],[89.61269,23.29642],[89.6262,23.28402],[89.65377,23.27626],[89.6459,23.26437],[89.63014,23.24938],[89.63126,23.2349],[89.64702,23.23024],[89.6746,23.22455],[89.69261,23.20748],[89.68979,23.17179],[89.73482,23.16558],[89.73988,23.17024],[89.75197,23.14117],[89.73077,23.12718],[89.71878,23.12548],[89.69895,23.12697],[89.68166,23.11955],[89.67844,23.10852],[89.6948,23.08944],[89.72039,23.07099],[89.73745,23.05466],[89.75238,23.01443],[89.77867,22.99719],[89.78731,22.98393],[89.80172,22.9637],[89.81325,22.94512],[89.81325,22.92721],[89.81037,22.91195],[89.80965,22.89337],[89.81721,22.87479],[89.83378,22.85355],[89.85611,22.84392],[89.8716,22.84027],[89.9051,22.84857],[89.94559,22.83436],[89.94906,22.845],[89.99072,22.87912],[90.02544,22.89618],[90.04164,22.91111],[90.06247,22.958],[90.10644,23.00061],[90.12033,23.02405],[90.17356,23.04535],[90.21059,23.03683],[90.22911,22.98996],[90.28234,22.97718],[90.3402,22.97718],[90.37723,22.99848],[90.40732,23.02405],[90.41461,23.02681],[90.44667,23.03896],[90.49759,23.09219],[90.52999,23.08368],[90.56008,23.04322],[90.58979,23.05695],[90.586,23.06128],[90.57711,23.13894],[90.62327,23.19907],[90.64317,23.22086],[90.66024,23.2557],[90.6536,23.30969],[90.63636,23.34718],[90.60081,23.37981],[90.59488,23.41652],[90.61118,23.46136],[90.62599,23.49397],[90.68672,23.50348],[90.70894,23.52521],[90.70005,23.57002],[90.66598,23.62568],[90.66598,23.64603],[90.67635,23.67045],[90.68672,23.67859],[90.71042,23.68944],[90.73412,23.70843],[90.7356,23.72742],[90.73709,23.76809],[90.7593,23.79114],[90.77115,23.85076],[90.80078,23.8616],[90.86299,23.85889],[90.9178,23.87379],[90.92965,23.8941],[90.94002,23.91577],[90.96816,23.95097],[90.99186,23.96451],[90.99334,24.00105],[91.00075,24.03352],[91.0363,24.05922],[91.06148,24.07951],[91.06592,24.11332],[91.05555,24.1417],[91.04222,24.16063],[91.03926,24.18495],[91.06,24.20657],[91.09407,24.20116],[91.11629,24.21332],[91.13554,24.23359],[91.18146,24.24304],[91.21485,24.24363]]]}},{"type":"Feature","properties":{"ADM1_EN":"Mymensingh"},"geometry":{"type":"Polygon","coordinates":[[[91.1939,24.63997],[91.19779,24.6418],[91.23626,24.65803],[91.25962,24.69299],[91.2184,24.72919],[91.18267,24.74292],[91.1758,24.75789],[91.19092,24.78284],[91.21702,24.81652],[91.15931,24.81652],[91.15244,24.83897],[91.13733,24.87014],[91.09748,24.88135],[91.05901,24.89257],[91.03565,24.90254],[91.00268,24.91127],[90.97794,24.96982],[90.96695,25.01092],[90.97107,25.06072],[90.98207,25.09432],[90.98619,25.11547],[90.97726,25.17152],[90.9472,25.15986],[90.86562,25.17541],[90.77974,25.18512],[90.72607,25.17735],[90.68957,25.16958],[90.66381,25.17541],[90.62946,25.17735],[90.58437,25.17541],[90.55217,25.17735],[90.50279,25.17541],[90.47059,25.16763],[90.38471,25.16763],[90.3246,25.17929],[90.29025,25.19289],[90.24302,25.20843],[90.12923,25.23757],[90.07556,25.25698],[90.03691,25.2764],[89.98109,25.30163],[89.93171,25.3191],[89.89951,25.31328],[89.85657,25.30163],[89.83081,25.31134],[89.82866,25.35403],[89.79002,25.39089],[89.7664,25.36761],[89.77928,25.29775],[89.77284,25.23174],[89.74279,25.21232],[89.72132,25.19289],[89.70844,25.15986],[89.68482,25.1346],[89.67623,25.09378],[89.67275,25.06332],[89.66979,25.03738],[89.6612,24.9829],[89.68697,24.91867],[89.69774,24.88604],[89.68895,24.83817],[89.73292,24.82779],[89.75402,24.81343],[89.77513,24.78868],[89.79887,24.76553],[89.80942,24.73598],[89.81822,24.69444],[89.79711,24.65209],[89.79949,24.57915],[89.83201,24.59808],[89.843,24.62431],[89.87461,24.64929],[89.88285,24.68925],[89.88285,24.72545],[89.89522,24.7504],[89.93506,24.76538],[89.96529,24.73793],[89.99002,24.72669],[90.02025,24.7529],[90.04773,24.79033],[90.08758,24.79158],[90.11369,24.76787],[90.1343,24.73543],[90.13704,24.70548],[90.15216,24.65179],[90.15353,24.6368],[90.13979,24.61307],[90.14391,24.59433],[90.17414,24.56434],[90.20575,24.52435],[90.24834,24.50059],[90.24834,24.47684],[90.23323,24.46558],[90.23597,24.44432],[90.25933,24.41304],[90.25796,24.38551],[90.25933,24.33795],[90.2717,24.30915],[90.31429,24.28411],[90.36513,24.29914],[90.41734,24.31541],[90.48055,24.34546],[90.5094,24.33294],[90.54925,24.31917],[90.57123,24.29914],[90.58635,24.2816],[90.61795,24.2816],[90.64543,24.28912],[90.66467,24.31041],[90.66879,24.32543],[90.66467,24.34421],[90.65093,24.36299],[90.6523,24.38176],[90.66467,24.39928],[90.67291,24.42931],[90.67016,24.44307],[90.63856,24.45432],[90.60696,24.47684],[90.6152,24.5081],[90.62757,24.5081],[90.67566,24.49559],[90.70726,24.49934],[90.7526,24.51185],[90.77047,24.5231],[90.79795,24.5256],[90.83367,24.5356],[90.87764,24.58059],[90.89963,24.59058],[90.97107,24.59808],[91.00405,24.60058],[91.02466,24.60058],[91.07,24.61682],[91.09199,24.61557],[91.15382,24.62306],[91.19229,24.6418],[91.1939,24.63997]]]}},{"type":"Feature","properties":{"ADM1_EN":"Rajshani"},"geometry":{"type":"Polygon","coordinates":[[[89.79949,24.57915],[89.79711,24.65209],[89.81822,24.69444],[89.80942,24.73598],[89.79887,24.76553],[89.77513,24.78868],[89.75402,24.81343],[89.73292,24.82779],[89.68895,24.83817],[89.69774,24.88604],[89.68697,24.91867],[89.6612,24.9829],[89.66979,25.03738],[89.67275,25.06332],[89.67235,25.06301],[89.63633,25.04261],[89.60594,25.04108],[89.5823,25.0365],[89.55134,25.02885],[89.51026,25.03497],[89.46636,25.04669],[89.37744,25.05995],[89.35211,25.06964],[89.33017,25.08544],[89.29133,25.09665],[89.24687,25.10735],[89.22661,25.12366],[89.21198,25.14047],[89.1844,25.16798],[89.1754,25.17613],[89.17483,25.20465],[89.18215,25.21738],[89.14332,25.22858],[89.11067,25.22909],[89.06959,25.24589],[89.0347,25.24793],[88.98967,25.27134],[88.96716,25.26981],[88.9424,25.25505],[88.94071,25.2296],[88.93258,25.18332],[88.92178,25.1755],[88.90665,25.17387],[88.88396,25.18039],[88.84253,25.20125],[88.82633,25.2006],[88.81336,25.19538],[88.79787,25.17876],[88.78094,25.17844],[88.76978,25.18724],[88.69645,25.20924],[88.67507,25.20516],[88.63905,25.20211],[88.59684,25.20058],[88.57883,25.17562],[88.53606,25.1797],[88.52874,25.18785],[88.50285,25.2072],[88.49328,25.20822],[88.47021,25.20567],[88.4477,25.19294],[88.44713,25.17104],[88.45839,25.15983],[88.45389,25.14302],[88.42913,25.12774],[88.43138,25.11347],[88.43644,25.0992],[88.43757,25.07932],[88.43194,25.07473],[88.41899,25.07218],[88.41843,25.05485],[88.43306,25.03803],[88.43588,25.02273],[88.42125,25.01253],[88.4083,25.00845],[88.40324,24.98294],[88.38692,24.95794],[88.36103,24.94723],[88.33289,24.93804],[88.32557,24.92273],[88.32726,24.90793],[88.33457,24.89108],[88.33289,24.87526],[88.31544,24.87117],[88.29743,24.86913],[88.28449,24.87423],[88.26197,24.88598],[88.25466,24.89568],[88.2389,24.92579],[88.22483,24.94672],[88.20007,24.95998],[88.1753,24.96305],[88.12296,24.92988],[88.11902,24.91865],[88.14435,24.90231],[88.16067,24.86607],[88.15673,24.84564],[88.14266,24.83287],[88.10158,24.81346],[88.08863,24.78332],[88.06781,24.77514],[88.05768,24.76134],[88.0498,24.72],[88.03133,24.70243],[88.02078,24.68485],[88.03397,24.67207],[88.05859,24.6345],[88.07618,24.61212],[88.09729,24.58973],[88.09465,24.55135],[88.09729,24.53935],[88.1351,24.50575],[88.15269,24.49934],[88.15796,24.49294],[88.18786,24.46893],[88.21248,24.46493],[88.24509,24.46612],[88.26873,24.46151],[88.29349,24.45433],[88.36722,24.40565],[88.47014,24.35202],[88.48597,24.34321],[88.51411,24.32238],[88.5317,24.31516],[88.56247,24.32318],[88.5871,24.32398],[88.60468,24.31436],[88.61172,24.30715],[88.62755,24.30314],[88.64513,24.31276],[88.668,24.336],[88.6891,24.32398],[88.70669,24.31036],[88.7234,24.28391],[88.73043,24.26627],[88.73131,24.24783],[88.72604,24.22378],[88.71109,24.18848],[88.7533,24.18287],[88.7788,24.15078],[88.80694,24.13232],[88.86937,24.12189],[88.90983,24.13072],[88.97402,24.12991],[88.99512,24.11306],[89.02151,24.07453],[89.04085,24.03679],[89.09098,23.96368],[89.15077,23.93796],[89.18507,23.93234],[89.19738,23.93234],[89.20266,23.95082],[89.20793,23.96609],[89.25366,23.95645],[89.25366,23.92189],[89.25527,23.91234],[89.30822,23.90755],[89.33748,23.90395],[89.3372,23.89456],[89.40755,23.87928],[89.43745,23.85917],[89.45679,23.83102],[89.46383,23.80608],[89.50516,23.78999],[89.54737,23.79563],[89.57639,23.82137],[89.61156,23.79321],[89.64058,23.77148],[89.68279,23.76987],[89.73204,23.76022],[89.79359,23.76505],[89.79447,23.79563],[89.78656,23.85998],[89.77073,23.89054],[89.7593,23.92671],[89.71797,23.97413],[89.73995,23.99662],[89.77601,24.00867],[89.79975,24.03036],[89.80178,24.06223],[89.80865,24.07352],[89.79904,24.14501],[89.79491,24.18889],[89.79354,24.21019],[89.79766,24.25029],[89.79766,24.28035],[89.78255,24.32167],[89.76056,24.35923],[89.76469,24.39302],[89.76056,24.40804],[89.7372,24.43556],[89.75094,24.46058],[89.75369,24.49184],[89.7482,24.50184],[89.73995,24.5256],[89.7482,24.54435],[89.77293,24.56184],[89.79766,24.57809],[89.79949,24.57915]]]}},{"type":"Feature","properties":{"ADM1_EN":"Rangpur"},"geometry":{"type":"Polygon","coordinates":[[[89.79002,25.39089],[89.82697,25.35564],[89.82067,25.37547],[89.81906,25.4013],[89.82735,25.42399],[89.83473,25.43523],[89.84487,25.50163],[89.84234,25.51619],[89.84603,25.5424],[89.8564,25.56153],[89.86285,25.58524],[89.86009,25.59626],[89.85225,25.61039],[89.8534,25.62432],[89.85709,25.63596],[89.867,25.65445],[89.86723,25.66214],[89.85453,25.67496],[89.83727,25.71055],[89.82297,25.72924],[89.81975,25.74066],[89.8262,25.74834],[89.83565,25.7554],[89.84672,25.76682],[89.84234,25.78882],[89.82897,25.80335],[89.81583,25.82514],[89.81952,25.83718],[89.83381,25.85253],[89.83888,25.87369],[89.84856,25.88385],[89.86285,25.89484],[89.873,25.90625],[89.88268,25.92055],[89.86931,25.92988],[89.83196,25.94191],[89.82159,25.95227],[89.84764,25.96284],[89.8564,25.97631],[89.85133,25.98688],[89.8315,25.98584],[89.8239,25.98792],[89.81537,25.99765],[89.81076,26.0105],[89.80937,26.02189],[89.79324,26.03246],[89.78402,26.04137],[89.78125,26.05545],[89.78632,26.05752],[89.79393,26.06787],[89.79393,26.08071],[89.77733,26.10555],[89.75866,26.12232],[89.74367,26.14488],[89.74068,26.15357],[89.73538,26.15812],[89.72039,26.15729],[89.6955,26.14571],[89.68166,26.14426],[89.67544,26.1486],[89.67267,26.16123],[89.67175,26.18191],[89.67982,26.20653],[89.67913,26.21542],[89.67083,26.22101],[89.65515,26.22576],[89.64363,26.22659],[89.62199,26.20313],[89.61839,26.19214],[89.60938,26.17792],[89.59209,26.15788],[89.58525,26.13977],[89.59065,26.12101],[89.59281,26.10517],[89.58992,26.0921],[89.60075,26.07015],[89.60277,26.07992],[89.6142,26.1044],[89.63267,26.10677],[89.63625,26.0863],[89.64132,26.06974],[89.64201,26.05586],[89.63603,26.04693],[89.60866,26.04305],[89.59641,26.03949],[89.58237,26.03496],[89.56271,26.025],[89.56294,25.99848],[89.56502,25.98978],[89.57747,25.98046],[89.58185,25.9732],[89.58093,25.96284],[89.57655,25.94978],[89.56825,25.94688],[89.54519,25.95082],[89.54058,25.95973],[89.53574,25.98066],[89.52975,25.98729],[89.51892,25.99165],[89.48895,25.9904],[89.46566,25.9933],[89.45944,25.9962],[89.43915,26.0279],[89.42371,26.0424],[89.41933,26.04012],[89.41426,26.03349],[89.40873,26.01982],[89.40458,26.00346],[89.39005,25.99434],[89.37968,25.99579],[89.3522,26.00356],[89.33455,26.01424],[89.31258,26.03334],[89.27404,26.04467],[89.24991,26.05826],[89.25964,26.06991],[89.22974,26.10193],[89.20993,26.11422],[89.17031,26.12489],[89.15878,26.13233],[89.13262,26.16828],[89.13938,26.18747],[89.13994,26.20565],[89.13375,26.23241],[89.12362,26.24301],[89.10054,26.26068],[89.09998,26.27784],[89.11799,26.28591],[89.14613,26.30458],[89.13769,26.31013],[89.09604,26.31921],[89.08422,26.32577],[89.08085,26.34292],[89.08422,26.36208],[89.10448,26.3757],[89.0831,26.38931],[89.06115,26.38881],[89.03807,26.39133],[89.01894,26.39536],[88.99924,26.41401],[88.95084,26.4382],[88.93621,26.43518],[88.91932,26.42107],[88.90582,26.41351],[88.88837,26.39939],[88.88387,26.37368],[88.90188,26.35099],[88.91257,26.3404],[88.94015,26.33334],[88.96041,26.34141],[88.97617,26.33182],[88.97617,26.32073],[88.97054,26.29903],[88.9711,26.28642],[88.97785,26.28188],[88.98573,26.28894],[89.00993,26.28289],[89.03244,26.26119],[89.0437,26.24604],[89.04595,26.2314],[89.0347,26.22535],[89.01725,26.22434],[88.95759,26.22686],[88.94127,26.2314],[88.93002,26.24352],[88.91201,26.26825],[88.89962,26.27532],[88.88499,26.27582],[88.87036,26.26674],[88.85854,26.24958],[88.85798,26.22434],[88.85516,26.20868],[88.84672,26.20919],[88.8304,26.22131],[88.81352,26.23746],[88.80676,26.25008],[88.8062,26.27229],[88.81183,26.28945],[88.74767,26.3061],[88.75273,26.32527],[88.74711,26.3404],[88.72178,26.33939],[88.70039,26.33485],[88.68464,26.34847],[88.69871,26.35351],[88.6942,26.37973],[88.69026,26.38729],[88.66888,26.38881],[88.64918,26.39889],[88.62723,26.41552],[88.6171,26.43064],[88.61316,26.44375],[88.60078,26.46743],[88.59177,26.46642],[88.58277,26.4508],[88.58896,26.44022],[88.58502,26.43266],[88.57039,26.43568],[88.55744,26.44224],[88.54619,26.44526],[88.53718,26.46793],[88.5203,26.46844],[88.5158,26.48909],[88.50567,26.49564],[88.49103,26.48808],[88.48372,26.49916],[88.47921,26.5178],[88.44939,26.52082],[88.42631,26.52787],[88.42012,26.54801],[88.41899,26.60036],[88.41337,26.62099],[88.37228,26.58274],[88.36384,26.56311],[88.35202,26.52434],[88.34079,26.50748],[88.32458,26.49556],[88.31341,26.46428],[88.31594,26.44332],[88.33106,26.42784],[88.34907,26.42849],[88.3552,26.43978],[88.3588,26.45461],[88.36708,26.46235],[88.38437,26.4617],[88.40526,26.45364],[88.40994,26.44752],[88.41067,26.4401],[88.42867,26.43655],[88.45101,26.44429],[88.46505,26.43204],[88.47478,26.41526],[88.47874,26.39461],[88.50323,26.35718],[88.49279,26.34589],[88.47982,26.34233],[88.46938,26.35589],[88.44164,26.35234],[88.42867,26.33975],[88.39554,26.29584],[88.36708,26.29229],[88.34871,26.28777],[88.33719,26.27195],[88.33322,26.24901],[88.33791,26.22898],[88.34547,26.21186],[88.32782,26.19408],[88.29865,26.17889],[88.2583,26.17048],[88.22553,26.17727],[88.2158,26.16402],[88.21688,26.14009],[88.18522,26.1273],[88.17203,26.11545],[88.15884,26.09571],[88.15005,26.07676],[88.165,26.0578],[88.17203,26.04042],[88.16939,26.01592],[88.15884,25.99379],[88.11927,25.98589],[88.11487,25.96217],[88.10696,25.94003],[88.08132,25.919],[88.07738,25.89824],[88.07906,25.87444],[88.08638,25.86381],[88.08863,25.85013],[88.08638,25.83646],[88.08807,25.81721],[88.10214,25.79846],[88.13366,25.77312],[88.14885,25.76856],[88.16686,25.78377],[88.17361,25.79593],[88.19781,25.77566],[88.21357,25.77769],[88.22033,25.78681],[88.22258,25.79998],[88.23834,25.80708],[88.25409,25.78883],[88.26423,25.77312],[88.28505,25.76654],[88.30869,25.74322],[88.31846,25.72872],[88.33827,25.71833],[88.35952,25.68945],[88.38437,25.67354],[88.40958,25.66251],[88.42651,25.64919],[88.43293,25.62328],[88.42739,25.61476],[88.438,25.58565],[88.48595,25.56632],[88.49632,25.54718],[88.50139,25.53429],[88.51015,25.52534],[88.52306,25.51536],[88.54682,25.50202],[88.56195,25.50137],[88.58104,25.50429],[88.60625,25.50234],[88.62246,25.49876],[88.64479,25.48218],[88.67,25.47666],[88.68117,25.47698],[88.69846,25.48218],[88.72079,25.49291],[88.73554,25.49309],[88.74928,25.49805],[88.75615,25.53154],[88.77264,25.52658],[88.78226,25.5179],[88.79738,25.52658],[88.80425,25.50302],[88.80974,25.47573],[88.81112,25.46208],[88.81112,25.41742],[88.81524,25.40128],[88.83447,25.38142],[88.8702,25.32927],[88.91417,25.31437],[88.95814,25.30567],[88.96716,25.26981],[88.98967,25.27134],[89.0347,25.24793],[89.06959,25.24589],[89.11067,25.22909],[89.14332,25.22858],[89.18215,25.21738],[89.17483,25.20465],[89.1754,25.17613],[89.1844,25.16798],[89.21198,25.14047],[89.22661,25.12366],[89.24687,25.10735],[89.29133,25.09665],[89.33017,25.08544],[89.35211,25.06964],[89.37744,25.05995],[89.46636,25.04669],[89.51026,25.03497],[89.55134,25.02885],[89.5823,25.0365],[89.60594,25.04108],[89.63633,25.04261],[89.67235,25.06301],[89.67275,25.06332],[89.67623,25.09378],[89.68482,25.1346],[89.70844,25.15986],[89.72132,25.19289],[89.74279,25.21232],[89.77284,25.23174],[89.77928,25.29775],[89.7664,25.36761],[89.79002,25.39089]]]}},{"type":"Feature","properties":{"ADM1_EN":"Sylhet"},"geometry":{"type":"Polygon","coordinates":[[[91.2954,24.00349],[91.3187,23.99949],[91.33931,23.99321],[91.36817,23.99195],[91.39015,24.01078],[91.39427,24.01706],[91.40114,24.04718],[91.40252,24.06223],[91.39427,24.08732],[91.38191,24.11742],[91.40114,24.13373],[91.4245,24.13247],[91.45885,24.11742],[91.47534,24.10739],[91.51381,24.09108],[91.54404,24.0823],[91.56602,24.0798],[91.62786,24.08732],[91.63747,24.11868],[91.6416,24.15379],[91.63473,24.20894],[91.65121,24.2152],[91.69106,24.19014],[91.75152,24.16005],[91.76801,24.16005],[91.77488,24.17134],[91.76526,24.20017],[91.75839,24.23149],[91.76801,24.24277],[91.80373,24.23149],[91.86006,24.19265],[91.88617,24.18011],[91.90403,24.18638],[91.91915,24.20393],[91.92602,24.22022],[91.92877,24.24528],[91.92877,24.26407],[91.92602,24.29037],[91.91915,24.32794],[91.92327,24.34171],[91.95487,24.35548],[91.99197,24.35172],[92.01258,24.36674],[91.99197,24.39678],[92.01121,24.40303],[92.04693,24.39803],[92.09502,24.39553],[92.10739,24.40303],[92.13212,24.41054],[92.1596,24.4218],[92.15273,24.44307],[92.14723,24.47684],[92.13624,24.5081],[92.13121,24.53116],[92.14416,24.54805],[92.18018,24.57723],[92.19537,24.5977],[92.19875,24.61356],[92.19819,24.63812],[92.21169,24.65602],[92.22239,24.68313],[92.23477,24.72096],[92.25165,24.73834],[92.28261,24.77463],[92.28261,24.82674],[92.27247,24.84921],[92.29161,24.87066],[92.32256,24.87781],[92.35971,24.88036],[92.41824,24.88087],[92.45651,24.88394],[92.47677,24.89159],[92.48915,24.9263],[92.48971,24.95437],[92.48071,24.97631],[92.434,24.99468],[92.43062,25.02579],[92.39685,25.05077],[92.35464,25.07015],[92.34057,25.09257],[92.33607,25.10684],[92.31356,25.10022],[92.28598,25.10175],[92.25278,25.11092],[92.22576,25.12366],[92.21057,25.14047],[92.15035,25.17359],[92.11703,25.19734],[92.08713,25.21266],[92.00249,25.1931],[91.96431,25.18821],[91.9427,25.18919],[91.84833,25.17615],[91.78565,25.183],[91.75432,25.1843],[91.73091,25.18039],[91.69381,25.15757],[91.67544,25.15072],[91.65454,25.15366],[91.62861,25.16181],[91.59115,25.17876],[91.55837,25.17192],[91.52163,25.14942],[91.49966,25.14975],[91.43987,25.168],[91.41646,25.18104],[91.3898,25.1931],[91.33542,25.17941],[91.31741,25.19473],[91.27634,25.21624],[91.24897,25.21559],[91.19638,25.20516],[91.13731,25.20549],[91.08184,25.2006],[91.02889,25.19799],[91.00476,25.19147],[90.97726,25.17152],[90.98619,25.11547],[90.98207,25.09432],[90.97107,25.06072],[90.96695,25.01092],[90.97794,24.96982],[91.00268,24.91127],[91.03565,24.90254],[91.05901,24.89257],[91.09748,24.88135],[91.13733,24.87014],[91.15244,24.83897],[91.15931,24.81652],[91.21702,24.81652],[91.19092,24.78284],[91.1758,24.75789],[91.18267,24.74292],[91.2184,24.72919],[91.25962,24.69299],[91.23626,24.65803],[91.19779,24.6418],[91.1939,24.63997],[91.20328,24.62931],[91.21153,24.59433],[91.23901,24.56434],[91.23626,24.5331],[91.17773,24.50495],[91.1619,24.48254],[91.19971,24.46973],[91.2217,24.48574],[91.2428,24.46413],[91.22345,24.43211],[91.2384,24.4153],[91.25687,24.40008],[91.25071,24.39207],[91.22785,24.38166],[91.22961,24.36644],[91.24104,24.34321],[91.22961,24.33359],[91.19883,24.32638],[91.17509,24.30555],[91.20059,24.2823],[91.21485,24.24363],[91.25849,24.24439],[91.28959,24.23764],[91.31033,24.23088],[91.30737,24.20657],[91.29107,24.17955],[91.28515,24.15252],[91.28515,24.11737],[91.29107,24.08492],[91.30737,24.06328],[91.31033,24.04299],[91.2954,24.00349]]]}},{"type":"Feature","properties":{"ADM1_EN":"Khulna"},"geometry":{"type":"MultiPolygon","coordinates":[[[[89.35718,21.6887],[89.36168,21.707],[89.34986,21.72425],[89.34761,21.73105],[89.33017,21.75092],[89.31666,21.74883],[89.31891,21.71223],[89.3296,21.69759],[89.34705,21.68713],[89.35718,21.6887]]],[[[89.9051,22.84857],[89.8716,22.84027],[89.85611,22.84392],[89.83378,22.85355],[89.81721,22.87479],[89.80965,22.89337],[89.81037,22.91195],[89.81325,22.92721],[89.81325,22.94512],[89.80172,22.9637],[89.78731,22.98393],[89.77867,22.99719],[89.75238,23.01443],[89.73745,23.05466],[89.72039,23.07099],[89.6948,23.08944],[89.67844,23.10852],[89.68166,23.11955],[89.69895,23.12697],[89.71878,23.12548],[89.73077,23.12718],[89.75197,23.14117],[89.73988,23.17024],[89.73482,23.16558],[89.68979,23.17179],[89.69261,23.20748],[89.6746,23.22455],[89.64702,23.23024],[89.63126,23.2349],[89.63014,23.24938],[89.6459,23.26437],[89.65377,23.27626],[89.6262,23.28402],[89.61269,23.29642],[89.6065,23.31348],[89.60369,23.32588],[89.59693,23.34397],[89.5823,23.36051],[89.58793,23.3791],[89.58167,23.39189],[89.5887,23.404],[89.59398,23.42013],[89.59222,23.44595],[89.58694,23.47015],[89.57228,23.48205],[89.55895,23.488],[89.53986,23.49328],[89.52293,23.49328],[89.50276,23.49989],[89.49736,23.51607],[89.49952,23.52532],[89.50817,23.53094],[89.50781,23.54415],[89.42426,23.67568],[89.38117,23.6628],[89.33017,23.68937],[89.30554,23.7256],[89.30642,23.75297],[89.32489,23.78677],[89.32665,23.82941],[89.31346,23.864],[89.25894,23.89054],[89.25538,23.91165],[89.25527,23.91234],[89.25366,23.92189],[89.25366,23.95645],[89.20793,23.96609],[89.20266,23.95082],[89.19738,23.93234],[89.18507,23.93234],[89.15077,23.93796],[89.09098,23.96368],[89.04085,24.03679],[89.02151,24.07453],[88.99512,24.11306],[88.97402,24.12991],[88.90983,24.13072],[88.86937,24.12189],[88.80694,24.13232],[88.7788,24.15078],[88.7533,24.18287],[88.71109,24.18848],[88.6979,24.16602],[88.69878,24.13553],[88.70581,24.0962],[88.73483,24.07212],[88.74362,24.05365],[88.72867,24.01751],[88.73416,23.97596],[88.74626,23.9251],[88.73571,23.91224],[88.71021,23.90179],[88.66184,23.87445],[88.64074,23.87365],[88.62403,23.88893],[88.60908,23.88652],[88.59237,23.86882],[88.60996,23.83746],[88.61436,23.80608],[88.60134,23.79276],[88.57545,23.78658],[88.57939,23.77525],[88.59515,23.75362],[88.58164,23.7294],[88.5732,23.70879],[88.57995,23.6954],[88.58615,23.67169],[88.55649,23.66745],[88.57661,23.63979],[88.64035,23.60291],[88.70073,23.53219],[88.76111,23.49528],[88.77789,23.45836],[88.74099,23.41219],[88.72757,23.32289],[88.72867,23.26436],[88.75478,23.24542],[88.79051,23.22775],[88.81112,23.22775],[88.81112,23.25047],[88.83035,23.25173],[88.92791,23.21638],[88.95539,23.21133],[88.97188,23.20628],[88.96638,23.1886],[88.95676,23.16712],[88.92653,23.13301],[88.87295,23.11027],[88.87432,23.08373],[88.9018,23.03695],[88.86698,22.98125],[88.86586,22.95638],[88.86698,22.94601],[88.89962,22.92476],[88.869,22.9091],[88.9377,22.86559],[88.95702,22.84185],[88.95273,22.82008],[88.92052,22.77456],[88.91837,22.7409],[88.95401,22.70526],[88.96363,22.69765],[88.95814,22.67103],[88.93478,22.64821],[88.94302,22.63045],[88.96638,22.60255],[88.95676,22.58479],[88.95814,22.55815],[88.98149,22.5353],[89.00623,22.46803],[89.00485,22.44009],[88.99386,22.36133],[89.0076,22.29396],[89.03645,22.25709],[89.06119,22.23547],[89.08455,22.20749],[89.09554,22.1566],[89.08592,22.14387],[89.06119,22.12096],[89.03645,22.09423],[89.05157,22.05985],[89.08746,22.01038],[89.09801,21.98673],[89.09801,21.89701],[89.14901,21.78682],[89.16836,21.7811],[89.20266,21.77783],[89.21585,21.76313],[89.21409,21.72801],[89.23695,21.71004],[89.23959,21.69778],[89.21848,21.67654],[89.20354,21.65447],[89.20969,21.63486],[89.22464,21.62259],[89.24926,21.62505],[89.26949,21.63486],[89.30027,21.64303],[89.3029,21.66019],[89.2934,21.68497],[89.29752,21.69007],[89.30027,21.70922],[89.29752,21.76028],[89.30164,21.78452],[89.32637,21.82534],[89.32775,21.84065],[89.34011,21.89293],[89.37584,21.89676],[89.37446,21.87636],[89.34599,21.81948],[89.35215,21.8007],[89.36534,21.78763],[89.37765,21.7713],[89.40139,21.7272],[89.40755,21.70514],[89.43833,21.71004],[89.45064,21.72311],[89.46031,21.74027],[89.4735,21.75333],[89.48142,21.76395],[89.49375,21.79122],[89.46584,21.81514],[89.4551,21.83507],[89.47228,21.855],[89.48301,21.87492],[89.51092,21.91277],[89.53454,21.9964],[89.55601,21.99043],[89.56245,21.9307],[89.55171,21.88289],[89.54527,21.83308],[89.54527,21.77527],[89.57318,21.72741],[89.58392,21.69949],[89.62471,21.70747],[89.61827,21.73539],[89.60538,21.75134],[89.69985,21.75334],[89.71058,21.77328],[89.68697,21.79321],[89.66979,21.8251],[89.68911,21.8251],[89.72346,21.81912],[89.80934,21.81514],[89.85228,21.8251],[89.87375,21.85898],[89.87048,21.9299],[89.86361,21.94902],[89.86361,21.97705],[89.87323,22.00126],[89.86499,22.05603],[89.86499,22.08531],[89.89583,22.10932],[89.89583,22.15648],[89.89866,22.20116],[89.90046,22.22935],[89.88657,22.25077],[89.875,22.2829],[89.89814,22.31288],[89.90971,22.33643],[89.90508,22.38352],[89.91897,22.42203],[89.9398,22.43701],[89.96063,22.46268],[89.94212,22.49262],[89.96295,22.50759],[89.98146,22.53752],[89.97683,22.57385],[89.96063,22.60377],[89.96063,22.63368],[89.95832,22.67426],[89.9398,22.69135],[89.89583,22.71056],[89.90508,22.73191],[89.9398,22.76606],[89.94212,22.82367],[89.94559,22.83436],[89.9453,22.8335],[89.9051,22.84857]]]]}},{"type":"Feature","properties":{"ADM1_EN":"Barisal"},"geometry":{"type":"MultiPolygon","coordinates":[[[[90.55128,21.84717],[90.55848,21.85586],[90.56749,21.87091],[90.57181,21.88528],[90.57253,21.90433],[90.56677,21.92605],[90.55812,21.9481],[90.5502,21.94108],[90.52751,21.91469],[90.51238,21.89029],[90.50914,21.87659],[90.51886,21.85219],[90.53579,21.8455],[90.55128,21.84717]]],[[[90.66231,21.90452],[90.66625,21.91809],[90.66343,21.92958],[90.65499,21.94002],[90.64486,21.94889],[90.63811,21.94472],[90.62348,21.92592],[90.62348,21.916],[90.63811,21.90556],[90.65218,21.89877],[90.66231,21.90452]]],[[[90.71859,21.95933],[90.72422,21.96977],[90.7169,21.9776],[90.7017,21.98752],[90.69439,21.9823],[90.68932,21.97343],[90.68876,21.96351],[90.69495,21.95777],[90.70958,21.95725],[90.71859,21.95933]]],[[[90.46814,21.93375],[90.47659,21.9656],[90.47546,21.99534],[90.4642,22.02561],[90.43212,22.04856],[90.39723,22.06004],[90.37641,22.02456],[90.36177,21.98073],[90.35052,21.95725],[90.34714,21.93689],[90.32407,21.86796],[90.31675,21.83662],[90.32407,21.81938],[90.34433,21.82983],[90.35108,21.85438],[90.37472,21.916],[90.38091,21.92018],[90.39667,21.916],[90.43494,21.90138],[90.45295,21.91026],[90.46814,21.93375]]],[[[90.52138,21.95846],[90.53255,21.97716],[90.55128,21.99219],[90.56497,22.0159],[90.56713,22.03627],[90.56137,22.05363],[90.54444,22.06498],[90.52427,22.05831],[90.50734,22.0356],[90.50482,22.00989],[90.51202,21.95645],[90.52138,21.95846]]],[[[90.96283,22.16678],[90.96146,22.20876],[90.95871,22.23547],[90.9697,22.26854],[90.98619,22.30795],[90.99031,22.32956],[90.98756,22.341],[90.9697,22.36006],[90.96695,22.35879],[90.95871,22.32574],[90.94359,22.29269],[90.92848,22.23166],[90.92161,22.18713],[90.95046,22.13114],[90.96146,22.12987],[90.96283,22.16678]]],[[[90.63691,21.99652],[90.6501,22.00304],[90.66681,22.01527],[90.68704,22.02505],[90.73188,22.06662],[90.75739,22.07559],[90.77761,22.08944],[90.79256,22.11225],[90.80487,22.12692],[90.81806,22.13425],[90.83301,22.15868],[90.83741,22.20265],[90.83829,22.25638],[90.84532,22.28812],[90.86027,22.31659],[90.86907,22.34181],[90.86555,22.39223],[90.88402,22.43044],[90.89105,22.48651],[90.84532,22.52876],[90.83477,22.56205],[90.80575,22.59129],[90.77497,22.61564],[90.74068,22.7487],[90.72661,22.78681],[90.70638,22.78681],[90.70864,22.78636],[90.66192,22.78002],[90.60146,22.72934],[90.57398,22.68498],[90.56849,22.65962],[90.57948,22.62665],[90.61108,22.5924],[90.62757,22.56449],[90.63444,22.5188],[90.64543,22.48199],[90.66055,22.45279],[90.67566,22.39944],[90.67841,22.36514],[90.67703,22.26345],[90.66879,22.22657],[90.63169,22.18077],[90.60284,22.15278],[90.59734,22.12605],[90.61383,22.10696],[90.62345,22.09041],[90.61493,22.0601],[90.60877,22.04462],[90.61669,22.02342],[90.61845,22.00223],[90.6246,21.9957],[90.63691,21.99652]]],[[[89.94559,22.83436],[89.94212,22.82367],[89.9398,22.76606],[89.90508,22.73191],[89.89583,22.71056],[89.9398,22.69135],[89.95832,22.67426],[89.96063,22.63368],[89.96063,22.60377],[89.97683,22.57385],[89.98146,22.53752],[89.96295,22.50759],[89.94212,22.49262],[89.96063,22.46268],[89.9398,22.43701],[89.91897,22.42203],[89.90508,22.38352],[89.90971,22.33643],[89.89814,22.31288],[89.875,22.2829],[89.88657,22.25077],[89.90046,22.22935],[89.89866,22.20116],[89.91858,22.17187],[89.92957,22.12605],[89.92682,22.09805],[89.92957,22.06367],[89.95155,22.01782],[89.95842,21.99616],[89.98041,21.98597],[89.98728,21.99234],[89.98865,22.04839],[90.01476,22.07895],[90.04773,22.08659],[90.0175,22.01018],[90.02163,21.99489],[90.07659,21.97705],[90.08346,21.96176],[90.07247,21.94902],[90.03262,21.94137],[90.02575,21.935],[90.02663,21.89211],[90.03982,21.87906],[90.04334,21.86355],[90.03015,21.84152],[90.06356,21.82927],[90.09082,21.82519],[90.11105,21.81458],[90.11896,21.80233],[90.14183,21.79253],[90.16645,21.78682],[90.18667,21.78763],[90.21569,21.79498],[90.23416,21.80805],[90.25263,21.81131],[90.26758,21.82192],[90.26758,21.84641],[90.27109,21.87743],[90.28692,21.89946],[90.29396,21.91414],[90.30099,21.91904],[90.32298,21.94106],[90.32298,22.00793],[90.33001,22.0275],[90.37486,22.07559],[90.38981,22.09433],[90.41795,22.09107],[90.44961,22.08374],[90.48302,22.07885],[90.5138,22.0764],[90.53403,22.08862],[90.55865,22.10981],[90.55689,22.14484],[90.60155,22.26885],[90.64663,22.38404],[90.64234,22.43564],[90.61872,22.44755],[90.58867,22.45945],[90.58437,22.5031],[90.58943,22.53525],[90.54546,22.57017],[90.52435,22.58479],[90.51292,22.62457],[90.50764,22.65379],[90.50149,22.6757],[90.50589,22.70004],[90.53315,22.70653],[90.61872,22.78644],[90.67884,22.83591],[90.68116,22.85981],[90.67291,22.88513],[90.63581,22.90791],[90.54925,22.94714],[90.50666,22.96359],[90.47643,22.9813],[90.4146,23.0243],[90.41461,23.02681],[90.40732,23.02405],[90.37723,22.99848],[90.3402,22.97718],[90.28234,22.97718],[90.22911,22.98996],[90.21059,23.03683],[90.17356,23.04535],[90.12033,23.02405],[90.10644,23.00061],[90.06247,22.958],[90.04164,22.91111],[90.02544,22.89618],[89.99072,22.87912],[89.94906,22.845],[89.94559,22.83436]]]]}}]}